{
  "type": "FeatureCollection",
  "features": [
    {
      "type": "Feature",
      "properties": {
        "norad_id": 38857,
        "name": "GSAT0103 (GALILEO-FM3)",
        "group": "gnss",
        "lat": 2.8171513933123395,
        "lon": 108.41280033155033,
        "alt_km": 23222.80100241864,
        "timestamp": "2025-12-18T19:29:52.787134+00:00",
        "meta_object_name": "GSAT0103 (GALILEO-FM3)",
        "meta_object_id": "2012-055A",
        "meta_epoch": "2025-12-17T15:12:30.323520",
        "meta_mean_motion": 1.70473416,
        "meta_eccentricity": 0.00028237,
        "meta_inclination": 55.6952,
        "meta_ra_of_asc_node": 106.5322,
        "meta_arg_of_pericenter": 269.0015,
        "meta_mean_anomaly": 90.9249,
        "meta_ephemeris_type": 0,
        "meta_classification_type": "U",
        "meta_norad_cat_id": 38857,
        "meta_element_set_no": 999,
        "meta_rev_at_epoch": 8191,
        "meta_bstar": 0,
        "meta_mean_motion_dot": -8e-08,
        "meta_mean_motion_ddot": 0,
        "tle_line1": "1 38857U 12055A   25351.63368430 -.00000008  00000+0  00000+0 0  9990",
        "tle_line2": "2 38857  55.6952 106.5322 0002823 269.0015  90.9249  1.70473416 81917"
      },
      "geometry": {
        "type": "Point",
        "coordinates": [
          108.41280033155033,
          2.8171513933123395
        ]
      }
    },
    {
      "type": "Feature",
      "properties": {
        "norad_id": 38953,
        "name": "BEIDOU-2 G6 (C02)",
        "group": "gnss",
        "lat": 1.930433910577493,
        "lon": 104.13000313587771,
        "alt_km": 35790.5581072205,
        "timestamp": "2025-12-18T19:29:52.787146+00:00",
        "meta_object_name": "BEIDOU-2 G6 (C02)",
        "meta_object_id": "2012-059A",
        "meta_epoch": "2025-12-17T23:55:21.927648",
        "meta_mean_motion": 1.00269401,
        "meta_eccentricity": 0.00081896,
        "meta_inclination": 3.9621,
        "meta_ra_of_asc_node": 75.4554,
        "meta_arg_of_pericenter": 291.8259,
        "meta_mean_anomaly": 162.3957,
        "meta_ephemeris_type": 0,
        "meta_classification_type": "U",
        "meta_norad_cat_id": 38953,
        "meta_element_set_no": 999,
        "meta_rev_at_epoch": 4809,
        "meta_bstar": 0,
        "meta_mean_motion_dot": -1.53e-06,
        "meta_mean_motion_ddot": 0,
        "tle_line1": "1 38953U 12059A   25351.99678157 -.00000153  00000+0  00000+0 0  9991",
        "tle_line2": "2 38953   3.9621  75.4554 0008189 291.8259 162.3957  1.00269401 48090"
      },
      "geometry": {
        "type": "Point",
        "coordinates": [
          104.13000313587771,
          1.930433910577493
        ]
      }
    },
    {
      "type": "Feature",
      "properties": {
        "norad_id": 38977,
        "name": "LUCH 5B (SDCM/PRN 125)",
        "group": "gnss",
        "lat": -7.4595753239327145,
        "lon": 4.320636592301773,
        "alt_km": 35799.98774422466,
        "timestamp": "2025-12-18T19:29:52.787161+00:00",
        "meta_object_name": "LUCH 5B (SDCM/PRN 125)",
        "meta_object_id": "2012-061A",
        "meta_epoch": "2025-12-18T00:28:21.485568",
        "meta_mean_motion": 1.00272498,
        "meta_eccentricity": 0.0006714,
        "meta_inclination": 10.0925,
        "meta_ra_of_asc_node": 51.6556,
        "meta_arg_of_pericenter": 194.5729,
        "meta_mean_anomaly": 191.418,
        "meta_ephemeris_type": 0,
        "meta_classification_type": "U",
        "meta_norad_cat_id": 38977,
        "meta_element_set_no": 999,
        "meta_rev_at_epoch": 4779,
        "meta_bstar": 0,
        "meta_mean_motion_dot": -1.22e-06,
        "meta_mean_motion_ddot": 0,
        "tle_line1": "1 38977U 12061A   25352.01969312 -.00000122  00000+0  00000+0 0  9996",
        "tle_line2": "2 38977  10.0925  51.6556 0006714 194.5729 191.4180  1.00272498 47790"
      },
      "geometry": {
        "type": "Point",
        "coordinates": [
          4.320636592301773,
          -7.4595753239327145
        ]
      }
    },
    {
      "type": "Feature",
      "properties": {
        "norad_id": 39155,
        "name": "COSMOS 2485 (747)",
        "group": "gnss",
        "lat": 61.24277344585914,
        "lon": 136.447196272726,
        "alt_km": 19180.48131451638,
        "timestamp": "2025-12-18T19:29:52.787173+00:00",
        "meta_object_name": "COSMOS 2485 (747)",
        "meta_object_id": "2013-019A",
        "meta_epoch": "2025-12-18T05:53:18.557952",
        "meta_mean_motion": 2.13103159,
        "meta_eccentricity": 0.0024769,
        "meta_inclination": 65.3166,
        "meta_ra_of_asc_node": 79.6819,
        "meta_arg_of_pericenter": 229.9573,
        "meta_mean_anomaly": 129.8462,
        "meta_ephemeris_type": 0,
        "meta_classification_type": "U",
        "meta_norad_cat_id": 39155,
        "meta_element_set_no": 999,
        "meta_rev_at_epoch": 9842,
        "meta_bstar": 0,
        "meta_mean_motion_dot": -4e-07,
        "meta_mean_motion_ddot": 0,
        "tle_line1": "1 39155U 13019A   25352.24535368 -.00000040  00000+0  00000+0 0  9993",
        "tle_line2": "2 39155  65.3166  79.6819 0024769 229.9573 129.8462  2.13103159 98427"
      },
      "geometry": {
        "type": "Point",
        "coordinates": [
          136.447196272726,
          61.24277344585914
        ]
      }
    },
    {
      "type": "Feature",
      "properties": {
        "norad_id": 39166,
        "name": "GPS BIIF-4  (PRN 27)",
        "group": "gnss",
        "lat": 54.32377055424005,
        "lon": -2.8449599242349306,
        "alt_km": 19878.827193936577,
        "timestamp": "2025-12-18T19:29:52.787184+00:00",
        "meta_object_name": "GPS BIIF-4  (PRN 27)",
        "meta_object_id": "2013-023A",
        "meta_epoch": "2025-12-15T04:59:33.811872",
        "meta_mean_motion": 2.00564736,
        "meta_eccentricity": 0.01378529,
        "meta_inclination": 54.65,
        "meta_ra_of_asc_node": 276.4679,
        "meta_arg_of_pericenter": 48.4851,
        "meta_mean_anomaly": 312.7012,
        "meta_ephemeris_type": 0,
        "meta_classification_type": "U",
        "meta_norad_cat_id": 39166,
        "meta_element_set_no": 999,
        "meta_rev_at_epoch": 9219,
        "meta_bstar": 0,
        "meta_mean_motion_dot": -6.8e-07,
        "meta_mean_motion_ddot": 0,
        "tle_line1": "1 39166U 13023A   25349.20803023 -.00000068  00000+0  00000+0 0  9998",
        "tle_line2": "2 39166  54.6500 276.4679 0137852  48.4851 312.7012  2.00564736 92194"
      },
      "geometry": {
        "type": "Point",
        "coordinates": [
          -2.8449599242349306,
          54.32377055424005
        ]
      }
    },
    {
      "type": "Feature",
      "properties": {
        "norad_id": 39199,
        "name": "IRNSS-1A",
        "group": "gnss",
        "lat": 4.976681647180057,
        "lon": 73.52688957939574,
        "alt_km": 35880.722921311164,
        "timestamp": "2025-12-18T19:29:52.787195+00:00",
        "meta_object_name": "IRNSS-1A",
        "meta_object_id": "2013-034A",
        "meta_epoch": "2025-12-17T18:43:36.515136",
        "meta_mean_motion": 1.00272181,
        "meta_eccentricity": 0.00240353,
        "meta_inclination": 35.3134,
        "meta_ra_of_asc_node": 66.4811,
        "meta_arg_of_pericenter": 209.5265,
        "meta_mean_anomaly": 146.4041,
        "meta_ephemeris_type": 0,
        "meta_classification_type": "U",
        "meta_norad_cat_id": 39199,
        "meta_element_set_no": 999,
        "meta_rev_at_epoch": 4554,
        "meta_bstar": 0,
        "meta_mean_motion_dot": 6.4e-07,
        "meta_mean_motion_ddot": 0,
        "tle_line1": "1 39199U 13034A   25351.78028374  .00000064  00000+0  00000+0 0  9995",
        "tle_line2": "2 39199  35.3134  66.4811 0024035 209.5265 146.4041  1.00272181 45541"
      },
      "geometry": {
        "type": "Point",
        "coordinates": [
          73.52688957939574,
          4.976681647180057
        ]
      }
    },
    {
      "type": "Feature",
      "properties": {
        "norad_id": 39533,
        "name": "GPS BIIF-5  (PRN 30)",
        "group": "gnss",
        "lat": 53.40748658913042,
        "lon": -120.15612977861181,
        "alt_km": 20337.204971638843,
        "timestamp": "2025-12-18T19:29:52.787207+00:00",
        "meta_object_name": "GPS BIIF-5  (PRN 30)",
        "meta_object_id": "2014-008A",
        "meta_epoch": "2025-12-17T04:42:21.782016",
        "meta_mean_motion": 2.00574699,
        "meta_eccentricity": 0.00793343,
        "meta_inclination": 53.632,
        "meta_ra_of_asc_node": 156.7429,
        "meta_arg_of_pericenter": 226.5757,
        "meta_mean_anomaly": 132.7662,
        "meta_ephemeris_type": 0,
        "meta_classification_type": "U",
        "meta_norad_cat_id": 39533,
        "meta_element_set_no": 999,
        "meta_rev_at_epoch": 8603,
        "meta_bstar": 0,
        "meta_mean_motion_dot": 7.8e-07,
        "meta_mean_motion_ddot": 0,
        "tle_line1": "1 39533U 14008A   25351.19608544  .00000078  00000+0  00000+0 0  9992",
        "tle_line2": "2 39533  53.6320 156.7429 0079334 226.5757 132.7662  2.00574699 86034"
      },
      "geometry": {
        "type": "Point",
        "coordinates": [
          -120.15612977861181,
          53.40748658913042
        ]
      }
    }
  ]
}